{
    "links": {
        "self": "http://www.neowsapp.com/rest/v1/neo/3673981?api_key=iIulBulltgU6a56xZRHN4H3l9WmuAYTsLGpBGhQ2"
    },
    "id": "3673981",
    "neo_reference_id": "3673981",
    "name": "(2014 MD18)",
    "designation": "2014 MD18",
    "nasa_jpl_url": "http://ssd.jpl.nasa.gov/sbdb.cgi?sstr=3673981",
    "absolute_magnitude_h": 24.6,
    "estimated_diameter": {
        "kilometers": {
            "estimated_diameter_min": 0.0319561887,
            "estimated_diameter_max": 0.0714562102
        },
        "meters": {
            "estimated_diameter_min": 31.9561886721,
            "estimated_diameter_max": 71.4562101727
        },
        "miles": {
            "estimated_diameter_min": 0.0198566489,
            "estimated_diameter_max": 0.0444008168
        },
        "feet": {
            "estimated_diameter_min": 104.8431420431,
            "estimated_diameter_max": 234.436392583
        }
    },
    "is_potentially_hazardous_asteroid": false,
    "close_approach_data": [
        {
            "close_approach_date": "2014-06-01",
            "close_approach_date_full": "2014-Jun-01 08:36",
            "epoch_date_close_approach": 1401611760000,
            "relative_velocity": {
                "kilometers_per_second": "6.7554235865",
                "kilometers_per_hour": "24319.5249115201",
                "miles_per_hour": "15111.2070207165"
            },
            "miss_distance": {
                "astronomical": "0.0342056789",
                "lunar": "13.3060090921",
                "kilometers": "5117096.705343943",
                "miles": "3179616.4519266934"
            },
            "orbiting_body": "Earth"
        }
    ],
    "orbital_data": {
        "orbit_id": "8",
        "orbit_determination_date": "2017-04-06 08:39:56",
        "first_observation_date": "2014-06-24",
        "last_observation_date": "2014-07-06",
        "data_arc_in_days": 12,
        "observations_used": 22,
        "orbit_uncertainty": "8",
        "minimum_orbit_intersection": ".0274284",
        "jupiter_tisserand_invariant": "3.649",
        "epoch_osculation": "2456836.5",
        "eccentricity": ".4888047614826974",
        "semi_major_axis": "2.032638438794386",
        "inclination": "3.210413270499728",
        "ascending_node_longitude": "67.28987276538973",
        "orbital_period": "1058.494554558705",
        "perihelion_distance": "1.039075091538934",
        "perihelion_argument": "171.5334021304197",
        "aphelion_distance": "3.026201786049838",
        "perihelion_time": "2456800.109531246941",
        "mean_anomaly": "12.37660476823423",
        "mean_motion": ".340105670312198",
        "equinox": "J2000",
        "orbit_class": {
            "orbit_class_type": "AMO",
            "orbit_class_description": "Near-Earth asteroid orbits similar to that of 1221 Amor",
            "orbit_class_range": "1.017 AU < q (perihelion) < 1.3 AU"
        }
    },
    "is_sentry_object": false
}